LOCATION_ID,PLACEKEY,LOCATION,CITY,REGION,ISO_COUNTRY_CODE,COUNTRY
1070,222-222@5x4-483-kmk,Pioneer Association of the State of Washington,Seattle,WA,US,United States
1071,222-222@5x4-48c-py9,Northgate Plaza,Seattle,WA,US,United States
1072,222-222@5x4-49j-fmk,Central Vacuum Service,Seattle,WA,US,United States
1073,222-222@5x4-49r-6x5,Seattle Children's Playgarden,Seattle,WA,US,United States
1074,222-222@5x4-4b2-ghq,Montlake Playfield,Seattle,WA,US,United States
1075,222-222@5x4-4b2-x89,Washington Park Arboretum,Seattle,WA,US,United States
1076,222-222@5x4-4b4-tvz,Seattle Parks and Recreation,Seattle,WA,US,United States
1077,222-222@5x4-4b4-vcq,Terry's Thermador Appliance Experts,Seattle,WA,US,United States
1079,222-222@5x4-4b5-ty9,Washington Trust For Historic Preservation,Seattle,WA,US,United States
1080,222-222@5x4-4b7-btv,Hyperspace,Seattle,WA,US,United States
1081,222-222@5x4-4b7-wrk,Seattle Asian Art Museum,Seattle,WA,US,United States
1082,222-222@5x4-4fy-hwk,Zen GE Monogram Repair,Seattle,WA,US,United States
1083,222-222@5x4-4fy-tn5,The Boat Rental,Seattle,WA,US,United States
1084,222-222@5x4-4g3-jsq,Rose Garden at Woodland Park Zoo,Seattle,WA,US,United States
1085,222-222@5x4-4qw-st9,Thermador Repair Group Industrial Disctrict,Seattle,WA,US,United States
1086,222-222@5x4-4r2-jn5,Buck Creek Presbyterian Camp,Seattle,WA,US,United States
1087,222-222@5x4-4r2-kmk,Lilac Adult Family Home,Seattle,WA,US,United States
1088,222-222@5x4-4vx-4n5,Bridge Gear Park,Seattle,WA,US,United States
1253,222-223@5x4-49k-75z,Seattle Medical & Rehabilitation Center,Seattle,WA,US,United States
1254,222-223@5x4-49x-f75,Naval Reserve Armory,Seattle,WA,US,United States
1255,222-223@5x4-4b3-wzf,Thermador Appliance Mavens,Seattle,WA,US,United States
1256,222-223@5x4-4b4-dgk,Envision Response,Seattle,WA,US,United States
1257,222-223@5x4-4b5-4jv,Thermador Repair Group Seattle,Seattle,WA,US,United States
1259,222-223@5x4-4b5-jjv,Seattle Municipal Tower,Seattle,WA,US,United States
1260,222-223@5x4-4b6-mff,Space Needle,Seattle,WA,US,United States
1261,222-223@5x4-4b7-tgk,Volunteer Park Conservatory,Seattle,WA,US,United States
1262,222-223@5x4-4g3-7t9,Alex's Watch & Clock Repair,Seattle,WA,US,United States
1263,222-223@5x4-4g3-vvf,Boat Electric,Seattle,WA,US,United States
1264,222-223@5x4-4nx-dsq,McIntyre Organ Repair Service,Seattle,WA,US,United States
1265,222-223@5x4-4qg-n89,Seattle Metro Appliance Repair,Seattle,WA,US,United States
1266,222-223@5x4-4xh-xt9,Seattle Chinese Garden,Seattle,WA,US,United States
1328,222-224@5x4-4g3-swk,Molbak's Butterfly Garden,Seattle,WA,US,United States
1329,222-224@5x4-4r2-66k,Washington Care Center,Seattle,WA,US,United States
1330,222-224@5x4-4vt-j5f,Coast Guard Museum,Seattle,WA,US,United States
1331,222-224@5x4-4w8-2rk,JP Custom Upolstery and Repair,Seattle,WA,US,United States
1360,222-225@5x4-487-y9z,Mr. Appliance,Seattle,WA,US,United States
1361,222-225@5x4-48g-59f,High Rated Repair,Seattle,WA,US,United States
1362,222-225@5x4-4vt-bhq,Navy Recruiting District Seattle,Seattle,WA,US,United States
1384,222-226@5x4-4b5-d5f,Expeditors Int'l of Washington,Seattle,WA,US,United States
1385,222-226@5x4-4g3-x5z,Steamworks Espresso Service,Seattle,WA,US,United States
1574,223-222@5x4-48d-dgk,Arc Watch Works & Engraving,Seattle,WA,US,United States
1575,223-222@5x4-4b4-whq,UW Medicine Diabetes Institute,Seattle,WA,US,United States
1576,223-222@5x4-4b5-d9z,American Freestyle Alterations,Seattle,WA,US,United States
1578,223-222@5x4-4nr-435,EcoGuard Appliance,Seattle,WA,US,United States
1579,223-222@5x4-4vt-68v,Downtown Seattle Masters,Seattle,WA,US,United States
1580,223-222@5x4-4vt-975,Pacific Maritime Institute,Seattle,WA,US,United States
1581,223-222@5x4-4xn-dn5,Arbor Heights Elder Care,Seattle,WA,US,United States
1674,223-223@5x4-49z-dgk,Cinderella Tailors,Seattle,WA,US,United States
1675,223-223@5x4-4b5-gtv,Seattle The Top Repair,Seattle,WA,US,United States
1677,223-223@5x4-4fy-qxq,Maximum Performance Hydraulics,Seattle,WA,US,United States
1709,223-224@5x4-4b3-xh5,Lake Union Yacht Center,Seattle,WA,US,United States
1724,223-225@5x4-4vs-qzz,Death Museum Store,Seattle,WA,US,United States
1756,223-22n@5x4-48d-d5f,Seattle Public Schools,Seattle,WA,US,United States
1804,224-222@5x4-4b4-s5z,Merrill Gardens at First Hill,Seattle,WA,US,United States
1805,224-222@5x4-4b5-dsq,Seattle Selfie Museum,Seattle,WA,US,United States
1806,224-222@5x4-4b6-t7q,Kerry Park,Seattle,WA,US,United States
1807,224-222@5x4-4dd-4n5,Malatesta Woodworks,Seattle,WA,US,United States
1808,224-222@5x4-4vw-n5z,Grindline,Seattle,WA,US,United States
1866,224-223@5x4-4fy-jjv,GE Monogram Appliance Repair Service,Seattle,WA,US,United States
1900,224-225@5x4-49y-vvf,Fuller Theological Seminary,Seattle,WA,US,United States
1901,224-225@5x4-4b5-3nq,Appliance Masters In Seattle,Seattle,WA,US,United States
1902,224-225@5x4-4b5-dn5,The ED Clinic,Seattle,WA,US,United States
1917,224-22d@5x4-4r5-8n5,Espresso Technolgies,Seattle,WA,US,United States
1954,225-222@5x4-49j-fmk,Arctic Viking Experts,Seattle,WA,US,United States
1955,225-222@5x4-49x-jqf,Pivot Art Culture,Seattle,WA,US,United States
1956,225-222@5x4-49x-rhq,A Place for Mom,Seattle,WA,US,United States
1957,225-222@5x4-4b4-59f,Fremont Appliance Refit,Seattle,WA,US,United States
1958,225-222@5x4-4b5-hwk,The Bicycle Repair Shop,Seattle,WA,US,United States
1959,225-222@5x4-4b5-ty9,The Summit At First Hill,Seattle,WA,US,United States
1960,225-222@5x4-4qw-mzf,Alcoholics Anonymous,Seattle,WA,US,United States
1961,225-222@5x4-4w7-g8v,Emerald Harbor Marine,Seattle,WA,US,United States
2019,225-223@5x4-48g-r8v,Polar Bear Mechanical,Seattle,WA,US,United States
2020,225-223@5x4-4b3-f4v,Rubber Chicken Museum,Seattle,WA,US,United States
2021,225-223@5x4-4vs-r8v,Lamber Thermador Range Repair Service,Seattle,WA,US,United States
2041,225-224@5x4-49k-5pv,Central Seattle Panel of Consultants Inc,Seattle,WA,US,United States
2049,225-225@5x4-4b2-7dv,Henry Art Gallery,Seattle,WA,US,United States
2113,226-222@5x4-48f-ndv,Kitchen Masters Specialist,Seattle,WA,US,United States
2114,226-222@5x4-4b3-btv,University House Wallingford,Seattle,WA,US,United States
2115,226-222@5x4-4b4-r8v,GameWorks,Seattle,WA,US,United States
2116,226-222@5x4-4b4-sh5,Seattle Tacoma Appliance Repair,Seattle,WA,US,United States
2117,226-222@5x4-4b5-g49,Era Living,Seattle,WA,US,United States
2118,226-222@5x4-4b7-9fz,Eidem's Custom Upholstery,Seattle,WA,US,United States
2119,226-222@5x4-4nz-g8v,All About Seniors,Seattle,WA,US,United States
2120,226-222@5x4-4ty-tqf,European Senior Care,Seattle,WA,US,United States
2158,226-223@5x4-4r5-3bk,Museum Of Communications,Seattle,WA,US,United States
2159,226-223@5x4-4vz-snq,Amusement Services,Seattle,WA,US,United States
2179,226-225@5x4-49j-wx5,Adam Tailoring & Alterations,Seattle,WA,US,United States
2218,227-222@5x4-4b3-skf,Good Shepherd Center,Seattle,WA,US,United States
2219,227-222@5x4-4d9-975,The Langland House Adult Family Home,Seattle,WA,US,United States
2220,227-222@5x4-4qv-z75,They Shall Walk Museum,Seattle,WA,US,United States
2221,227-222@5x4-4vz-wff,Beacon Alterations,Seattle,WA,US,United States
2257,227-223@5x4-48c-wp9,Nathan Hale Playfield,Seattle,WA,US,United States
2270,227-224@5x4-4fs-dsq,Rider Oasis,Seattle,WA,US,United States
2271,227-224@5x4-4ny-835,NW Caravan Treasures,Seattle,WA,US,United States
2272,227-224@5x4-4vz-6zf,Emeritus at West Seattle,Seattle,WA,US,United States
2290,227-228@5x4-4vz-6zf,Meril Gardens,Seattle,WA,US,United States
2294,227-22q@5x4-4vy-t9z,Creative Date,Seattle,WA,US,United States
2317,228-222@5x4-4b5-j35,American Civil Liberties Union,Seattle,WA,US,United States
2318,228-222@5x4-4b5-jd9,Queen Anne,Seattle,WA,US,United States
2319,228-222@5x4-4nz-zj9,Lake City Young People,Seattle,WA,US,United States
2321,228-222@5x4-4vt-6kz,Waterfall Garden,Seattle,WA,US,United States
2322,228-222@5x4-4vt-6p9,Seattle Metropolitan Police Museum,Seattle,WA,US,United States
2323,228-222@5x4-4w2-5cq,Army National Guard Recruiting,Seattle,WA,US,United States
2353,228-223@5x4-4b2-7dv,Gerberding Hall,Seattle,WA,US,United States
2354,228-223@5x4-4b5-jd9,Merrill Gardens at Queen Anne,Seattle,WA,US,United States
2355,228-223@5x4-4g3-wc5,Walrus Machine,Seattle,WA,US,United States
2356,228-223@5x4-4vt-5j9,Amasia College,Seattle,WA,US,United States
2413,229-222@5x4-47t-rzf,Diane's Alterations and Tailoring,Seattle,WA,US,United States
2414,229-222@5x4-49j-dqf,Spring Manor,Seattle,WA,US,United States
2415,229-222@5x4-49x-nt9,Center For Autism Rehabilitation & Evaluation,Seattle,WA,US,United States
2416,229-222@5x4-4b3-qmk,Swansons Shoe Repair,Seattle,WA,US,United States
2418,229-222@5x4-4d7-yn5,HomeWell Senior Care,Seattle,WA,US,United States
2419,229-222@5x4-4qp-k4v,Pleasant Adult Family Home,Seattle,WA,US,United States
2420,229-222@5x4-4xr-2rk,United Machine Shop Service,Seattle,WA,US,United States
2440,229-223@5x4-4b5-jd9,Campana Quetzal,Seattle,WA,US,United States
2482,22b-222@5x4-48f-xyv,University House Resident Council,Seattle,WA,US,United States
2483,22b-222@5x4-49z-vs5,Always Perfect Yacht Interiors,Seattle,WA,US,United States
2484,22b-222@5x4-4w2-49z,Stonepath Logistics Int'l Svcs,Seattle,WA,US,United States
2485,22b-222@5x4-4xk-389,Champion Small Engine Repair,Seattle,WA,US,United States
2555,22c-222@5x4-489-wx5,Spada Homes,Seattle,WA,US,United States
2556,22c-222@5x4-4b5-59f,Tim's DCS Repair Service,Seattle,WA,US,United States
2558,22c-222@5x4-4qw-jjv,Espresso Repair Experts,Seattle,WA,US,United States
2559,22c-222@5x4-4w2-4sq,Western Safety Products Inc,Seattle,WA,US,United States
2586,22c-223@5x4-48h-6ff,Green Lake Pitch n' Putt,Seattle,WA,US,United States
2587,22c-223@5x4-49j-jy9,Filipino American National Historical Society,Seattle,WA,US,United States
2625,22d-222@5x4-48g-mzf,Edward's Refrigerator Repair Service,Seattle,WA,US,United States
2626,22d-222@5x4-4b7-dgk,Antioch University Seattle,Seattle,WA,US,United States
2627,22d-222@5x4-4fy-7h5,Pearly Jones Home,Seattle,WA,US,United States
2628,22d-222@5x4-4r4-2zf,Race Recycling and Compacting Equipment,Seattle,WA,US,United States
2629,22d-222@5x4-4vz-ghq,A & J Commissary,Seattle,WA,US,United States
2630,22d-222@5x4-4xd-d5f,Mr. Appliance,Seattle,WA,US,United States
2659,22d-223@5x4-4b2-w8v,Sub Zero Quality Prime Repair,Seattle,WA,US,United States
2696,22f-222@5x4-4ft-st9,Ballard Sails,Seattle,WA,US,United States
2720,22f-223@5x4-4b5-4sq,Sole Repair,Seattle,WA,US,United States
2734,22f-22r@5x4-4b6-6tv,Seattle Interactive Media Museum,Seattle,WA,US,United States
2758,22g-222@5x4-47t-k9f,Sutherland Cooktop Repair,Seattle,WA,US,United States
2759,22g-222@5x4-48f-xh5,Northwest Blind Repair,Seattle,WA,US,United States
2760,22g-222@5x4-4fr-zj9,American Freestyle Alterations,Seattle,WA,US,United States
2761,22g-222@5x4-4r2-pn5,Upholstery Outfitters of Seattle,Seattle,WA,US,United States
2762,22g-222@5x4-4vq-ghq,Budget Blinds of West Seattle & Central South,Seattle,WA,US,United States
2782,22g-224@5x4-4vt-3wk,Seattle Drug Rehab,Seattle,WA,US,United States
2786,22g-226@5x4-4b3-qmk,Seattle Sub Zero Repair,Seattle,WA,US,United States
2800,22h-222@5x4-4b4-66k,ARS Appliance Repair Service,Seattle,WA,US,United States
2822,22h-22b@5x4-48j-q2k,Dick Paetzke Creative Directions,Seattle,WA,US,United States
2837,22j-222@5x4-4b5-33q,Magnolia Care,Seattle,WA,US,United States
2838,22j-222@5x4-4b8-dd9,Simply Frames & Miner Gallery,Seattle,WA,US,United States
2840,22j-222@5x4-4fy-z4v,Jim's Cobbler Shoppe,Seattle,WA,US,United States
2841,22j-222@5x4-4vz-y5f,Casa Bella Home Care Services,Seattle,WA,US,United States
2842,22j-222@5x4-4xq-x89,Florence of Seattle,Seattle,WA,US,United States
2884,22k-222@5x4-47t-rp9,Thrifty Janitorial,Seattle,WA,US,United States
2885,22k-222@5x4-4xq-ch5,Aquarist World,Seattle,WA,US,United States
2903,22k-223@5x4-48h-brk,Ridge Custom Upholstery,Seattle,WA,US,United States
2904,22k-223@5x4-4nx-kzz,Hunger Intervention Program,Seattle,WA,US,United States
2921,22m-222@5x4-49x-47q,Sacred Garden Healing Center,Seattle,WA,US,United States
2922,22m-222@5x4-4vs-qxq,Underground Paranormal Experience,Seattle,WA,US,United States
2924,22m-222@5x4-4vt-3t9,Columbia Tower Club,Seattle,WA,US,United States
2964,22n-222@5x4-4w9-9zz,Jenny Manes Premier Bridal Design & Alterations,Seattle,WA,US,United States
3001,22p-222@5x4-4b4-tqf,Martha's Garden,Seattle,WA,US,United States
3002,22p-222@5x4-4vt-6kz,Klondike Gold Rush National Historical Park Seattle Unit,Seattle,WA,US,United States
3003,22p-222@5x4-4vw-sdv,Dragonfly Pavilion,Seattle,WA,US,United States
3021,22p-228@5x4-4b8-p7q,Kitchen Repair Specialists,Seattle,WA,US,United States
3032,22q-222@5x4-48f-zcq,Village Shoe Repair,Seattle,WA,US,United States
3033,22q-222@5x4-4b5-bzf,Peoples Computer Museum,Seattle,WA,US,United States
3054,22r-222@5x4-48f-vj9,Woodland Park Off Leash Area,Seattle,WA,US,United States
3055,22r-222@5x4-4r5-qj9,South Bark Dog Park,Seattle,WA,US,United States
3076,22s-222@5x4-49z-2zf,Superb Custom Tailors,Seattle,WA,US,United States
3082,22s-223@5x4-4b2-psq,Roanoke Park Watch Repair,Seattle,WA,US,United States
3100,22t-223@5x4-49j-whq,Reel Grrls,Seattle,WA,US,United States
3101,22t-223@5x4-4b6-52k,Puget Sound,Seattle,WA,US,United States
3108,22t-226@5x4-489-975,Can't Look Away The Lure of Horror Film Exhibit,Seattle,WA,US,United States
3116,22v-222@5x4-4fv-rff,Coffee Physics,Seattle,WA,US,United States
3117,22v-222@5x4-4w7-vmk,Cal Anderson Park and Bobby Morris Playfield,Seattle,WA,US,United States
3134,22w-222@5x4-4dd-kfz,Northpoint the Evergreen Northgate,Seattle,WA,US,United States
3166,22x-223@5x4-4dd-6kz,Weiskind's Appliance,Seattle,WA,US,United States
3196,232-222@5x4-4fw-8sq,Home Espresso Repair and Cafe,Seattle,WA,US,United States
3218,233-224@5x4-49j-nbk,Seattle Appliance Specialist,Seattle,WA,US,United States
3263,236-222@5x4-4b4-rx5,Metro Tailoring & Alterations,Seattle,WA,US,United States
3291,238-222@5x4-49x-rkz,Elite Vend,Seattle,WA,US,United States
3305,239-222@5x4-4b8-p7q,Broadway Shoe Repair,Seattle,WA,US,United States
3321,23b-223@5x4-4ny-835,Lake City Watch Repair,Seattle,WA,US,United States
3322,23b-223@5x4-4qy-y5f,Rainier Valley Historical Society,Seattle,WA,US,United States
3328,23c-222@5x4-4b5-h89,PAR3 Communications,Seattle,WA,US,United States
3339,23f-222@5x4-49z-yy9,Washington Huskies Football,Seattle,WA,US,United States
3363,23k-222@5x4-4vt-3t9,Busy Shoes Quality Shoe Repair,Seattle,WA,US,United States
3392,23s-222@5x4-48f-whq,Marine Corps Recruiting,Seattle,WA,US,United States
3396,23s-227@5x4-4fw-3kf,Thrive Center For Healing Traditions,Seattle,WA,US,United States
3421,23z-222@5x4-4b5-ks5,Court Furniture Rental,Seattle,WA,US,United States
3439,247-222@5x4-4vt-3wk,Connections,Seattle,WA,US,United States
3474,25s-222@5x4-4b6-6zf,American Cultural Exchange,Seattle,WA,US,United States
3485,26p-222@5x4-4b5-dvz,New Mark Tailor,Seattle,WA,US,United States
3490,27b-222@5x4-4b8-grk,Hilltop Appliance Repair,Seattle,WA,US,United States
3504,2bk-222@5x4-4b4-rx5,Uysal Alterations,Seattle,WA,US,United States
3505,2bm-222@5x4-4dc-m49,A Leg Up,Seattle,WA,US,United States
3644,zzw-222@5x4-487-p9z,Froula Playground,Seattle,WA,US,United States
3645,zzw-222@5x4-48f-5xq,Odyssey Sober Living,Seattle,WA,US,United States
3646,zzw-222@5x4-48h-fvf,Lower Woodland Park Playfields,Seattle,WA,US,United States
3647,zzw-222@5x4-49j-zfz,Wisteria Park,Seattle,WA,US,United States
3648,zzw-222@5x4-49k-7yv,Logan Field,Seattle,WA,US,United States
3649,zzw-222@5x4-49r-p5f,Mount Baker Park,Seattle,WA,US,United States
3650,zzw-222@5x4-49s-73q,Beacon Hill Playground,Seattle,WA,US,United States
3651,zzw-222@5x4-49y-yjv,West Queen Anne Playfield,Seattle,WA,US,United States
3652,zzw-222@5x4-49z-4n5,Interbay P Patch,Seattle,WA,US,United States
3654,zzw-222@5x4-4b4-9vf,Bedford Sub Zero Appliance Repair,Seattle,WA,US,United States
3655,zzw-222@5x4-4b4-xqz,City University Of Seattle,Seattle,WA,US,United States
3656,zzw-222@5x4-4b5-kmk,Drug Rehab and Sober Living Seattle,Seattle,WA,US,United States
3657,zzw-222@5x4-4b6-b8v,Queen Anne Upholstery and Refinishing,Seattle,WA,US,United States
3658,zzw-222@5x4-4b6-k9f,Wrench Bicycle Workshop,Seattle,WA,US,United States
3659,zzw-222@5x4-4b6-xh5,Myrtle Edwards Park,Seattle,WA,US,United States
3660,zzw-222@5x4-4b7-8n5,The Laser Dome,Seattle,WA,US,United States
3661,zzw-222@5x4-4b7-bkz,Seattle Children's Museum,Seattle,WA,US,United States
3662,zzw-222@5x4-4b8-26k,Washington Park Japanese Gdn,Seattle,WA,US,United States
3663,zzw-222@5x4-4b8-gff,Fred Lind Manor,Seattle,WA,US,United States
3664,zzw-222@5x4-4d8-ty9,Pacific Northwest Museum Of Motorcycling,Seattle,WA,US,United States
3665,zzw-222@5x4-4fr-5pv,Nordic Museum,Seattle,WA,US,United States
3666,zzw-222@5x4-4g2-28v,Kiwanis Ravine Overlook,Seattle,WA,US,United States
3668,zzw-222@5x4-4qg-z9f,Atlantic City Boat Ramp,Seattle,WA,US,United States
3669,zzw-222@5x4-4qh-94v,Rainier Beach Playfield,Seattle,WA,US,United States
3670,zzw-222@5x4-4qy-5xq,Lakewood Playfield,Seattle,WA,US,United States
3671,zzw-222@5x4-4r3-kpv,E C Hughes Playground,Seattle,WA,US,United States
3672,zzw-222@5x4-4ty-mc5,Alki Point Lighthouse Tours,Seattle,WA,US,United States
3673,zzw-222@5x4-4v5-zmk,Ercolini Park,Seattle,WA,US,United States
3674,zzw-222@5x4-4vr-brk,Luna Park Hoa,Seattle,WA,US,United States
3675,zzw-222@5x4-4vs-wrk,Chinese Community Bulletin Board,Seattle,WA,US,United States
3676,zzw-222@5x4-4vt-47q,University of Washington Virology Research Clinic,Seattle,WA,US,United States
3677,zzw-222@5x4-4vt-5s5,Solo Appliance Repair,Seattle,WA,US,United States
3678,zzw-222@5x4-4vv-dsq,The Seattle Great Wheel,Seattle,WA,US,United States
3679,zzw-222@5x4-4vv-dy9,Wings Over Washington,Seattle,WA,US,United States
3680,zzw-222@5x4-4w7-gkz,Monkey Fist Marine,Seattle,WA,US,United States
3681,zzw-222@5x4-4w7-j35,Smith Cove Park,Seattle,WA,US,United States
3682,zzw-222@5x4-4xn-6x5,Arroyos Natural Area,Seattle,WA,US,United States
3885,zzw-223@5x4-48h-fvf,Green Lake Small Craft Center,Seattle,WA,US,United States
3886,zzw-223@5x4-49c-3bk,National Oceanic and Atmospheric,Seattle,WA,US,United States
3887,zzw-223@5x4-49x-tqf,St Marks Greenbelt,Seattle,WA,US,United States
3889,zzw-223@5x4-4b5-nyv,Western Avenue Senior Housing,Seattle,WA,US,United States
3890,zzw-223@5x4-4b6-m49,The Prince From Minneapolis Exhibit,Seattle,WA,US,United States
3891,zzw-223@5x4-4fs-7wk,Hiram M Chittenden Locks,Seattle,WA,US,United States
3892,zzw-223@5x4-4qw-45f,Georgetown Powerplant Museum,Seattle,WA,US,United States
3893,zzw-223@5x4-4qw-n5z,Boyer Thermador Appliance Repair,Seattle,WA,US,United States
3894,zzw-223@5x4-4sq-h89,Arrowhead Gardens,Seattle,WA,US,United States
3895,zzw-223@5x4-4vt-54v,Presbyterian Retirement Communities Northwest,Seattle,WA,US,United States
3962,zzw-224@5x4-4b5-qs5,Athena University,Seattle,WA,US,United States
3963,zzw-224@5x4-4dd-m8v,Laura's Alteration & Tailor Express,Seattle,WA,US,United States
3964,zzw-224@5x4-4vs-kcq,Living Computer Museum,Seattle,WA,US,United States
3965,zzw-224@5x4-4vs-m8v,T Mobile Park,Seattle,WA,US,United States
4015,zzw-225@5x4-4ny-b8v,Lake City Mini Park,Seattle,WA,US,United States
4016,zzw-225@5x4-4vv-mx5,Centennial Park,Seattle,WA,US,United States
4045,zzw-226@5x4-48c-y9z,Elenvilla Alterations & Tailoring,Seattle,WA,US,United States
4046,zzw-226@5x4-48f-pqf,Als Music Video & Games,Seattle,WA,US,United States
4068,zzw-227@5x4-49w-y35,Westlake Square,Seattle,WA,US,United States
4069,zzw-227@5x4-4b7-bkz,Fisher Pavillion,Seattle,WA,US,United States
4087,zzw-228@5x4-4b5-f75,Pike Place Urban Garden,Seattle,WA,US,United States
4088,zzw-228@5x4-4b5-nqz,Bell Street Park Boulevard,Seattle,WA,US,United States
4121,zzw-22b@5x4-48d-bzf,The Watch & Jewelry Repair,Seattle,WA,US,United States
4122,zzw-22b@5x4-4b5-dd9,Leventhorp Behavioral,Seattle,WA,US,United States
4131,zzw-22c@5x4-4b5-4jv,Jimi Hendrix Statue,Seattle,WA,US,United States
4168,zzw-22n@5x4-4vt-3t9,Sky View Observatory,Seattle,WA,US,United States
4188,zzw-22w@5x4-4b5-d5f,Seattle Tower,Seattle,WA,US,United States
4221,zzw-24h@5x4-4b4-rhq,Amira Acne Solutions,Seattle,WA,US,United States
5147,zzy-222@5x4-47v-nnq,Laurelhurst Beach Club,Seattle,WA,US,United States
5148,zzy-222@5x4-48b-47q,Meadowbrook Playfield,Seattle,WA,US,United States
5149,zzy-222@5x4-48b-kxq,Burke Gilman Trail,Seattle,WA,US,United States
5150,zzy-222@5x4-48d-zcq,Raul's Viking Repair Services,Seattle,WA,US,United States
5151,zzy-222@5x4-48f-mx5,Burke Museum Of Natural History And Culture,Seattle,WA,US,United States
5152,zzy-222@5x4-48g-t7q,Grady KitchenAid Repair Master,Seattle,WA,US,United States
5153,zzy-222@5x4-48j-pd9,Bryant Neighborhood Playground,Seattle,WA,US,United States
5154,zzy-222@5x4-49h-rrk,Judkins Park P Patch,Seattle,WA,US,United States
5155,zzy-222@5x4-49j-nnq,Madrona Playground,Seattle,WA,US,United States
5156,zzy-222@5x4-49r-mtv,East Portal Viewpoint,Seattle,WA,US,United States
5157,zzy-222@5x4-49s-2p9,Refrigerator Repair,Seattle,WA,US,United States
5158,zzy-222@5x4-49s-59f,ABC Appliance Service,Seattle,WA,US,United States
5159,zzy-222@5x4-49x-7yv,Roanoke Street Mini Park,Seattle,WA,US,United States
5160,zzy-222@5x4-49z-9j9,East Queen Anne Playground,Seattle,WA,US,United States
5161,zzy-222@5x4-4b2-835,Red Square,Seattle,WA,US,United States
5163,zzy-222@5x4-4b5-nkf,Jack Block Park,Seattle,WA,US,United States
5165,zzy-222@5x4-4fr-9s5,Marvins Garden,Seattle,WA,US,United States
5166,zzy-222@5x4-4fv-xyv,Tanishas Hood Drag Race,Seattle,WA,US,United States
5167,zzy-222@5x4-4fy-x89,Bayview Playground,Seattle,WA,US,United States
5168,zzy-222@5x4-4fz-8n5,Smith Cove,Seattle,WA,US,United States
5169,zzy-222@5x4-4g4-ckf,B F Day Playground,Seattle,WA,US,United States
5170,zzy-222@5x4-4ny-tsq,WorldBest Seattle Viking Range Repair,Seattle,WA,US,United States
5171,zzy-222@5x4-4qf-789,Lakeridge Playfield,Seattle,WA,US,United States
5172,zzy-222@5x4-4r5-54v,Hat n' Boots,Seattle,WA,US,United States
5173,zzy-222@5x4-4tx-r6k,Bar S Playground,Seattle,WA,US,United States
5174,zzy-222@5x4-4vq-c5z,Spokane Street Bridge,Seattle,WA,US,United States
5175,zzy-222@5x4-4vv-m6k,Classic Yacht Association,Seattle,WA,US,United States
5176,zzy-222@5x4-4vy-cqz,York Playground,Seattle,WA,US,United States
5177,zzy-222@5x4-4w7-hwk,Open Water Park,Seattle,WA,US,United States
5178,zzy-222@5x4-4w8-4vz,Magnolia Greenbelt,Seattle,WA,US,United States
8404,zzy-223@5x4-49x-5s5,Darren Sub Zero Repair Master,Seattle,WA,US,United States
8405,zzy-223@5x4-4b3-whq,Wallingford Steps,Seattle,WA,US,United States
8406,zzy-223@5x4-4b4-r8v,Pike Place Market Gum Wall,Seattle,WA,US,United States
8407,zzy-223@5x4-4d9-k4v,Sandel Playground,Seattle,WA,US,United States
8408,zzy-223@5x4-4fr-m49,Ballard Corners Park,Seattle,WA,US,United States
8409,zzy-223@5x4-4r7-3bk,Othello Playground,Seattle,WA,US,United States
8410,zzy-223@5x4-4vr-2tv,Don Armeni Boat Ramp,Seattle,WA,US,United States
9633,zzy-224@5x4-4b5-m49,American Firefighter,Seattle,WA,US,United States
9634,zzy-224@5x4-4b6-s3q,Queen Ann Drive Bridge,Seattle,WA,US,United States
10396,zzy-225@5x4-4b4-vs5,Thomas Street Gardens,Seattle,WA,US,United States
10397,zzy-225@5x4-4vs-tn5,Pot Business Rules For Washington,Seattle,WA,US,United States
10398,zzy-225@5x4-4w7-vzz,Your Choice Appliance Service,Seattle,WA,US,United States
10889,zzy-226@5x4-4b5-t7q,Boylston Place,Seattle,WA,US,United States
11595,zzy-228@5x4-4g4-47q,Edith Macefield's House,Seattle,WA,US,United States
13400,zzy-22p@5x4-4b5-dvz,Giant Shoe Museum,Seattle,WA,US,United States
14961,zzz-222@5x4-47v-dgk,Union Bay Natural Area,Seattle,WA,US,United States
14962,zzz-222@5x4-482-hyv,East Madison Street Ferry Dock,Seattle,WA,US,United States
14963,zzz-222@5x4-482-n3q,Foster Island Wash Park,Seattle,WA,US,United States
14964,zzz-222@5x4-487-835,Maple Leaf Reservoir Park,Seattle,WA,US,United States
14965,zzz-222@5x4-487-xkf,Rainbow Point,Seattle,WA,US,United States
14966,zzz-222@5x4-488-gff,Licton Springs Park,Seattle,WA,US,United States
14967,zzz-222@5x4-489-bkz,Greenwood Park,Seattle,WA,US,United States
14968,zzz-222@5x4-48b-5fz,Nathan Hale Stadium Complex,Seattle,WA,US,United States
14969,zzz-222@5x4-48c-2tv,Matthews Beach,Seattle,WA,US,United States
14970,zzz-222@5x4-48c-3yv,Matthews Beach Park,Seattle,WA,US,United States
14971,zzz-222@5x4-48c-pvz,Hubbard Homestead Park,Seattle,WA,US,United States
14972,zzz-222@5x4-48c-xnq,Pinehurst Pocket Park,Seattle,WA,US,United States
14973,zzz-222@5x4-48d-bc5,Northgate Park,Seattle,WA,US,United States
14974,zzz-222@5x4-48d-cdv,Beaver Pond Natural Area On Tc,Seattle,WA,US,United States
14975,zzz-222@5x4-48d-jd9,Kingfisher Natural Area On Tc,Seattle,WA,US,United States
14976,zzz-222@5x4-48d-jy9,Lavilla Meadows Na On Tc,Seattle,WA,US,United States
14978,zzz-222@5x4-48d-zfz,University Heights,Seattle,WA,US,United States
14979,zzz-222@5x4-48g-28v,Ravenna Woods,Seattle,WA,US,United States
14980,zzz-222@5x4-48g-p35,Linden Orchard Park,Seattle,WA,US,United States
14981,zzz-222@5x4-48h-7t9,Woodland Park,Seattle,WA,US,United States
14982,zzz-222@5x4-48h-jd9,Ne 60Th Street Park,Seattle,WA,US,United States
14983,zzz-222@5x4-48h-vmk,View Ridge Playfield,Seattle,WA,US,United States
14984,zzz-222@5x4-48h-wp9,View Ridge Es Playfield,Seattle,WA,US,United States
14985,zzz-222@5x4-49g-y35,Leschi Lake Dell Natural Area,Seattle,WA,US,United States
14986,zzz-222@5x4-49h-pqf,Frink Park,Seattle,WA,US,United States
14987,zzz-222@5x4-49j-85f,Firehouse Mini Park,Seattle,WA,US,United States
14988,zzz-222@5x4-49j-c89,Miller Triangle,Seattle,WA,US,United States
14989,zzz-222@5x4-49j-mc5,Noras Woods,Seattle,WA,US,United States
14990,zzz-222@5x4-49j-v4v,Homer Harris Park,Seattle,WA,US,United States
14991,zzz-222@5x4-49j-yn5,Pratt Park,Seattle,WA,US,United States
14992,zzz-222@5x4-49j-zzz,Dr Blanche Lavizzo Park,Seattle,WA,US,United States
14993,zzz-222@5x4-49k-8vz,Horiuchi Park,Seattle,WA,US,United States
14994,zzz-222@5x4-49k-dsq,Powell Barnett Park,Seattle,WA,US,United States
14995,zzz-222@5x4-49p-6p9,Stevens Triangle,Seattle,WA,US,United States
14996,zzz-222@5x4-49p-7t9,Alvin Larkins Park,Seattle,WA,US,United States
14997,zzz-222@5x4-49p-zfz,Mount Baker Beach,Seattle,WA,US,United States
14998,zzz-222@5x4-49q-jn5,Stanley Sayres Memorial Park,Seattle,WA,US,United States
15000,zzz-222@5x4-49r-j35,Judge Charles M Stokes Overlk,Seattle,WA,US,United States
15001,zzz-222@5x4-49r-pd9,Bradner Gardens Park,Seattle,WA,US,United States
15002,zzz-222@5x4-49s-b8v,College Street Park,Seattle,WA,US,United States
15003,zzz-222@5x4-49w-vxq,Thomas C Wales Park,Seattle,WA,US,United States
15004,zzz-222@5x4-49w-w49,Westlake Greenbelt,Seattle,WA,US,United States
15005,zzz-222@5x4-49x-qfz,Bhy Kracke Park,Seattle,WA,US,United States
15006,zzz-222@5x4-49x-t7q,Fairview Walkway,Seattle,WA,US,United States
15007,zzz-222@5x4-49x-x5z,Bellevue Place,Seattle,WA,US,United States
15008,zzz-222@5x4-49y-qpv,South Ship Canal Trail,Seattle,WA,US,United States
15009,zzz-222@5x4-49y-st9,Fremont Canal Park,Seattle,WA,US,United States
15010,zzz-222@5x4-4b2-gp9,Montlake Playfield,Seattle,WA,US,United States
15011,zzz-222@5x4-4b3-grk,Wallingford Playfield,Seattle,WA,US,United States
15012,zzz-222@5x4-4b3-mp9,Northlake Park,Seattle,WA,US,United States
15013,zzz-222@5x4-4b3-sdv,Demonstration Garden,Seattle,WA,US,United States
15014,zzz-222@5x4-4b4-28v,Gas Works Park,Seattle,WA,US,United States
15015,zzz-222@5x4-4b4-3yv,TrollS Knoll,Seattle,WA,US,United States
15016,zzz-222@5x4-4b4-6zf,A B Ernst Park,Seattle,WA,US,United States
15017,zzz-222@5x4-4b4-9fz,Sunnyside Ave N Boat Ramp,Seattle,WA,US,United States
15018,zzz-222@5x4-4b4-bc5,South Passage Point Park,Seattle,WA,US,United States
15019,zzz-222@5x4-4b4-f4v,Fairview Park,Seattle,WA,US,United States
15020,zzz-222@5x4-4b4-skf,Plymouth Pillars Park,Seattle,WA,US,United States
15021,zzz-222@5x4-4b4-zvf,Cal Anderson Park,Seattle,WA,US,United States
15022,zzz-222@5x4-4b5-8d9,Tashkent Park,Seattle,WA,US,United States
15023,zzz-222@5x4-4b5-c89,Thomas Street Mini Park,Seattle,WA,US,United States
15024,zzz-222@5x4-4b5-g6k,Westlake Park,Seattle,WA,US,United States
15025,zzz-222@5x4-4b5-ty9,First Hill Park,Seattle,WA,US,United States
15026,zzz-222@5x4-4b6-bff,Kinnear Park,Seattle,WA,US,United States
15027,zzz-222@5x4-4b6-dqf,Marshall Park,Seattle,WA,US,United States
15028,zzz-222@5x4-4b6-kfz,Ward Springs Park,Seattle,WA,US,United States
15029,zzz-222@5x4-4b6-snq,Counterbalance Park,Seattle,WA,US,United States
15030,zzz-222@5x4-4b6-t5f,Kerry Park Franklin Place,Seattle,WA,US,United States
15031,zzz-222@5x4-4b6-tqf,Highland Drive Parkway,Seattle,WA,US,United States
15032,zzz-222@5x4-4b7-ch5,Belltown Cottage Park,Seattle,WA,US,United States
15033,zzz-222@5x4-4b7-whq,Boren Park,Seattle,WA,US,United States
15034,zzz-222@5x4-4b8-3wk,Washington Park,Seattle,WA,US,United States
15035,zzz-222@5x4-4b8-pd9,Broadway Hill Park,Seattle,WA,US,United States
15036,zzz-222@5x4-4b8-rtv,Prentis I Frazier Park,Seattle,WA,US,United States
15037,zzz-222@5x4-4d2-wff,Bitter Lake Playfield,Seattle,WA,US,United States
15038,zzz-222@5x4-4d3-mx5,Pipers Creek Natural Area,Seattle,WA,US,United States
15039,zzz-222@5x4-4d6-fs5,Bitter Lake Open Space Park,Seattle,WA,US,United States
15040,zzz-222@5x4-4d9-4vz,Crown Hill Park,Seattle,WA,US,United States
15041,zzz-222@5x4-4dc-yjv,Helene Madison Pool,Seattle,WA,US,United States
15042,zzz-222@5x4-4dc-z2k,Haller Lake Community St End,Seattle,WA,US,United States
15043,zzz-222@5x4-4fr-dqf,Webster Park,Seattle,WA,US,United States
15044,zzz-222@5x4-4fr-nwk,Gemenskap Park,Seattle,WA,US,United States
15046,zzz-222@5x4-4fv-87q,Kirke Park,Seattle,WA,US,United States
15047,zzz-222@5x4-4fv-djv,Baker Park On Crown Hill,Seattle,WA,US,United States
15048,zzz-222@5x4-4fv-v2k,Greenwood Phinney Ruv,Seattle,WA,US,United States
15049,zzz-222@5x4-4fw-5s5,Ballard Swimming Pool,Seattle,WA,US,United States
15050,zzz-222@5x4-4fx-3bk,Soundview Playfield,Seattle,WA,US,United States
15051,zzz-222@5x4-4fx-6x5,North Beach Es Playfield,Seattle,WA,US,United States
15052,zzz-222@5x4-4fy-y9z,Ella Bailey Park,Seattle,WA,US,United States
15053,zzz-222@5x4-4fz-d7q,Interbay Golf,Seattle,WA,US,United States
15054,zzz-222@5x4-4g2-3dv,Discovery Park,Seattle,WA,US,United States
15055,zzz-222@5x4-4g2-hdv,Carleton Highlands,Seattle,WA,US,United States
15056,zzz-222@5x4-4g3-87q,Fremont Peak Park,Seattle,WA,US,United States
15057,zzz-222@5x4-4nx-fvf,University Lake Shore Place,Seattle,WA,US,United States
15058,zzz-222@5x4-4ny-8n5,Virgil Flaim Park,Seattle,WA,US,United States
15059,zzz-222@5x4-4ny-c89,Homewood Park,Seattle,WA,US,United States
15060,zzz-222@5x4-4ny-d7q,Thornton Creek Natural Area,Seattle,WA,US,United States
15061,zzz-222@5x4-4ny-x89,Licorice Fern Na On Tc,Seattle,WA,US,United States
15062,zzz-222@5x4-4nz-z4v,Olympic Hills Es Playfield,Seattle,WA,US,United States
15063,zzz-222@5x4-4qg-yjv,Chinook Beach Park,Seattle,WA,US,United States
15064,zzz-222@5x4-4qh-6zf,Pritchett Island Beach,Seattle,WA,US,United States
15065,zzz-222@5x4-4qv-pvz,Dearborn Park,Seattle,WA,US,United States
15066,zzz-222@5x4-4qv-zzz,Maple School Ravine,Seattle,WA,US,United States
15067,zzz-222@5x4-4qx-87q,Maple Wood Playfield,Seattle,WA,US,United States
15068,zzz-222@5x4-4qx-q2k,Cleveland Playfield,Seattle,WA,US,United States
15069,zzz-222@5x4-4qy-f2k,Lakewood Moorage,Seattle,WA,US,United States
15070,zzz-222@5x4-4qz-mhq,Cheasty Greenspace,Seattle,WA,US,United States
15071,zzz-222@5x4-4qz-n89,Jefferson Park Golf Course,Seattle,WA,US,United States
15074,zzz-222@5x4-4r2-4vz,Mount Baker Boulevard,Seattle,WA,US,United States
15075,zzz-222@5x4-4r5-dd9,Cesar Chavez Park,Seattle,WA,US,United States
15076,zzz-222@5x4-4r6-ct9,Martha Washington Park,Seattle,WA,US,United States
15077,zzz-222@5x4-4r6-y5f,John C Little Sr Park,Seattle,WA,US,United States
15078,zzz-222@5x4-4rz-b6k,Seward Park,Seattle,WA,US,United States
15079,zzz-222@5x4-4ty-2hq,College Street Ravine,Seattle,WA,US,United States
15080,zzz-222@5x4-4ty-4n5,Schmitz Boulevard,Seattle,WA,US,United States
15081,zzz-222@5x4-4ty-4y9,Nantes Park,Seattle,WA,US,United States
15082,zzz-222@5x4-4ty-ht9,Andover Place,Seattle,WA,US,United States
15083,zzz-222@5x4-4ty-s89,Schmitz Preserve Park,Seattle,WA,US,United States
15084,zzz-222@5x4-4v6-835,Me Kwa Mooks Park,Seattle,WA,US,United States
15085,zzz-222@5x4-4v6-9pv,Me Kwa Mooks Natural Area,Seattle,WA,US,United States
15086,zzz-222@5x4-4vq-ht9,Jack Block Park,Seattle,WA,US,United States
15087,zzz-222@5x4-4vr-3h5,Hamilton Viewpoint Park,Seattle,WA,US,United States
15088,zzz-222@5x4-4vr-5cq,Seacrest Park,Seattle,WA,US,United States
15089,zzz-222@5x4-4vs-qzz,Pioneer Square,Seattle,WA,US,United States
15090,zzz-222@5x4-4vs-wp9,Columbia Park,Seattle,WA,US,United States
15092,zzz-222@5x4-4vt-p5f,Dr Jose Rizal Park,Seattle,WA,US,United States
15093,zzz-222@5x4-4vt-pd9,Katie Blacks Garden,Seattle,WA,US,United States
15095,zzz-222@5x4-4vw-hnq,Pathfinder,Seattle,WA,US,United States
15096,zzz-222@5x4-4vw-rzf,Delridge Playfield,Seattle,WA,US,United States
15097,zzz-222@5x4-4vx-4vz,Terminal 18 Park,Seattle,WA,US,United States
15098,zzz-222@5x4-4vz-v4v,Twelfth Avenue South Viewpoint,Seattle,WA,US,United States
15099,zzz-222@5x4-4w7-hnq,Magnolia Greenbelt,Seattle,WA,US,United States
15100,zzz-222@5x4-4w7-qfz,Magnolia Park,Seattle,WA,US,United States
15101,zzz-222@5x4-4w7-w6k,Twelfth West And W Howe Park,Seattle,WA,US,United States
15102,zzz-222@5x4-4w8-4y9,Thorndyke Park,Seattle,WA,US,United States
15103,zzz-222@5x4-4xd-jn5,Solstice Park,Seattle,WA,US,United States
15104,zzz-222@5x4-4xd-vfz,Orchard Street Ravine,Seattle,WA,US,United States
15105,zzz-222@5x4-4xf-5cq,Kilbourne Park,Seattle,WA,US,United States
15106,zzz-222@5x4-4xf-87q,Lincoln Park,Seattle,WA,US,United States
15107,zzz-222@5x4-4xh-kxq,Puget Creek Natural Area,Seattle,WA,US,United States
15108,zzz-222@5x4-4xn-3kf,Arroyo Heights,Seattle,WA,US,United States
15109,zzz-222@5x4-4xq-mkz,Westcrest Park,Seattle,WA,US,United States
15110,zzz-222@5x4-86r-fpv,Blue Dog Pond,Seattle,WA,US,United States
15460,zzz-223@5x4-48h-mx5,Greenwood Triangle,Seattle,WA,US,United States
15461,zzz-223@5x4-49j-bff,Spruce Street Mini Park,Seattle,WA,US,United States
15462,zzz-223@5x4-49r-mrk,East Portal Viewpoint,Seattle,WA,US,United States
15463,zzz-223@5x4-49r-sbk,Judkins Park And Playfield,Seattle,WA,US,United States
15464,zzz-223@5x4-49z-djv,Queen Anne Swimming Pool,Seattle,WA,US,United States
15465,zzz-223@5x4-4b4-2ff,Waterway,Seattle,WA,US,United States
15466,zzz-223@5x4-4b8-f4v,Pendleton Miller Playfield,Seattle,WA,US,United States
15467,zzz-223@5x4-4b8-mc5,Volunteer Parkway,Seattle,WA,US,United States
15468,zzz-223@5x4-4nr-4d9,Little Brook Park,Seattle,WA,US,United States
15469,zzz-223@5x4-4qh-9vf,Rainier Beach Urban Farm and Wl,Seattle,WA,US,United States
15470,zzz-223@5x4-4vt-5zz,Hing Hay Park,Seattle,WA,US,United States
15471,zzz-223@5x4-4vv-dy9,Waterfront Park,Seattle,WA,US,United States
15472,zzz-223@5x4-4w9-c5z,West Magnolia Playfield,Seattle,WA,US,United States
15502,zzz-224@5x4-4w7-w6k,West Central Grounds Maint,Seattle,WA,US,United States
